[{"OBJECT_NAME":"STARLINK-32008","OBJECT_ID":"2024-111N","EPOCH":"2026-03-09T06:56:38.058432","MEAN_MOTION":15.30188477,"ECCENTRICITY":0.0001283,"INCLINATION":53.1604,"RA_OF_ASC_NODE":77.3761,"ARG_OF_PERICENTER":89.7374,"MEAN_ANOMALY":270.3774,"EPHEMERIS_TYPE":0,"CLASSIFICATION_TYPE":"U","NORAD_CAT_ID":60028,"ELEMENT_SET_NO":999,"REV_AT_EPOCH":9897,"BSTAR":-2.861404e-6,"MEAN_MOTION_DOT":-4.44e-6,"MEAN_MOTION_DDOT":0},{"OBJECT_NAME":"OBJECT L","OBJECT_ID":"2024-024L","EPOCH":"2026-03-09T22:36:05.522976","MEAN_MOTION":15.29373491,"ECCENTRICITY":0.00073185,"INCLINATION":97.3169,"RA_OF_ASC_NODE":137.7038,"ARG_OF_PERICENTER":167.6369,"MEAN_ANOMALY":192.5052,"EPHEMERIS_TYPE":0,"CLASSIFICATION_TYPE":"U","NORAD_CAT_ID":58927,"ELEMENT_SET_NO":999,"REV_AT_EPOCH":9318,"BSTAR":0.00043092344,"MEAN_MOTION_DOT":0.00012217,"MEAN_MOTION_DDOT":0}]
